SKYKRAFT-1A             
1 55054U 23001AX  26068.71064616  .00008177  00000+0  30069-3 0  9991
2 55054  97.3349 127.6290 0011277 121.5092 238.7251 15.28083228176529
STARLINK-30505          
1 57972U 23151J   26067.11927383  .00035659  00000+0  13308-2 0  9991
2 57972  43.0004 345.0806 0001631 252.0236 108.0438 15.26785781135520
